OBJECT_NAME,OBJECT_ID,EPOCH,MEAN_MOTION,ECCENTRICITY,INCLINATION,RA_OF_ASC_NODE,ARG_OF_PERICENTER,MEAN_ANOMALY,EPHEMERIS_TYPE,CLASSIFICATION_TYPE,NORAD_CAT_ID,ELEMENT_SET_NO,REV_AT_EPOCH,BSTAR,MEAN_MOTION_DOT,MEAN_MOTION_DDOT
SCS-01 H,2025-100H,2026-06-03T12:04:08.721408,15.34887846,.0006825,97.3685,231.0082,339.4583,20.6384,0,U,63989,999,5876,.10095E-2,.34209E-3,0
SCS-01 J,2025-100J,2026-06-03T11:42:26.810784,15.31010744,.0007518,97.3625,230.2882,348.3688,11.7378,0,U,63990,999,5871,.88799E-3,.26613E-3,0
SCS-01 K,2025-100K,2026-06-03T12:00:57.315168,15.20178113,.0010773,97.3634,227.5979,22.5761,337.5946,0,U,63991,999,5854,.70119E-3,.15155E-3,0
SCS-01 L,2025-100L,2026-06-03T12:02:42.394848,15.20175423,.0009617,97.3664,227.7452,4.8550,355.2777,0,U,63992,999,5853,.68454E-3,.14787E-3,0
SCS-01 M,2025-100M,2026-06-03T12:08:19.685760,15.34585117,.0007904,97.3659,230.8868,3.5818,356.5480,0,U,63993,999,5875,.10082E-2,.33847E-3,0
STARLINK-33871,2025-101A,2026-06-01T14:15:47.256480,15.27580606,.00015021,43.0007,244.4389,272.1989,87.8691,0,U,63994,999,5981,.63890774E-3,.17361E-3,0
STARLINK-34154,2025-101B,2026-06-02T13:07:25.672224,15.27647344,.0000126,42.9971,238.6894,322.4577,37.6266,0,U,63995,999,6003,.13572E-2,.37352E-3,0
STARLINK-34158,2025-101C,2026-06-01T13:23:58.543872,15.27590218,.00017807,43.0021,244.2062,269.3225,90.7423,0,U,63996,999,5988,.10822095E-2,.29647E-3,0
STARLINK-34165,2025-101D,2026-06-02T12:39:40.091904,15.27599842,.0000168,42.9934,238.5373,199.5622,160.5223,0,U,63997,999,6003,.81052E-3,.22122E-3,0
STARLINK-34150,2025-101E,2026-06-01T07:48:02.988576,15.27591807,.00021641,43.0023,245.8592,175.6183,184.4688,0,U,63998,999,5984,.70887151E-3,.19303E-3,0
STARLINK-34169,2025-101F,2026-06-01T07:05:30.193440,15.27582168,.00007851,42.9997,245.6338,255.8923,104.1842,0,U,63999,999,5984,.83292578E-3,.2273E-3,0
STARLINK-34152,2025-101G,2026-06-01T13:31:22.654560,15.27581551,.00012512,43.0014,244.2044,255.1064,104.9649,0,U,64000,999,5988,.62303658E-3,.16923E-3,0
STARLINK-33927,2025-101H,2026-06-01T06:37:57.187776,15.27581169,.00003163,42.9961,246.3552,25.0232,335.0635,0,U,64001,999,5983,.75568776E-3,.20592E-3,0
STARLINK-33898,2025-101J,2026-06-01T08:01:00.556608,15.27579500,.00011718,43.0004,245.9267,245.8007,114.2722,0,U,64002,999,5984,.98009472E-3,.26806E-3,0
STARLINK-33928,2025-101K,2026-06-01T06:43:17.730048,15.27555579,.00005895,42.9933,245.5119,339.4827,20.6000,0,U,64003,999,5984,-.77785479E-3,-.21588E-3,0
STARLINK-33758,2025-101L,2026-06-01T13:51:43.517664,15.27597358,.00018673,43.0042,244.3127,286.1106,73.9540,0,U,64004,999,5988,.61268038E-3,.16645E-3,0
STARLINK-33936,2025-101M,2026-06-01T13:27:40.276512,15.27591321,.00013996,43.0024,244.1856,257.8409,102.2286,0,U,64005,999,5988,.83100999E-3,.22684E-3,0
STARLINK-33931,2025-101N,2026-06-01T06:45:08.555328,15.27585222,.00017054,43.0024,245.5222,265.4577,94.6080,0,U,64006,999,5986,.69437197E-3,.18898E-3,0
STARLINK-33759,2025-101P,2026-06-01T06:59:56.638464,15.27593885,.00012148,42.9995,245.5977,252.4387,107.6332,0,U,64007,999,5984,.10039948E-2,.2748E-3,0
STARLINK-34163,2025-101Q,2026-06-03T08:00:06.000192,15.27582125,.0001372,43.0020,234.4649,270.0121,8.7968,0,U,64008,999,577,-.26899E-3,-.7657E-4,0
STARLINK-34077,2025-101R,2026-06-01T06:58:05.580768,15.27600688,.0001093,42.9993,245.5880,260.5583,99.5145,0,U,64009,999,5984,.10333954E-2,.28302E-3,0
STARLINK-34113,2025-101S,2026-06-01T14:10:12.313920,15.27556326,.0002294,43.0004,244.4082,293.7635,66.2976,0,U,64010,999,5988,.32175878E-3,.8596E-4,0
STARLINK-34193,2025-101T,2026-06-01T14:08:23.743680,15.27587583,.00022002,43.0004,244.3964,20.2720,339.8219,0,U,64011,999,5988,.68768742E-3,.18714E-3,0
STARLINK-34078,2025-101U,2026-06-01T06:54:23.336640,15.27600342,.00015874,42.9991,245.5659,162.2107,197.8800,0,U,64012,999,5984,.1046891E-2,.28676E-3,0
STARLINK-34182,2025-101V,2026-06-01T06:22:00.776064,15.27586014,.00012861,42.9977,242.7995,266.8843,93.1861,0,U,64013,999,5987,.6216317E-3,.16886E-3,0
STARLINK-34192,2025-101W,2026-06-01T06:30:33.403680,15.27588800,.00012111,42.9994,246.3086,261.3614,98.7101,0,U,64014,999,5983,.85870257E-3,.23449E-3,0
STARLINK-34093,2025-101X,2026-06-02T12:52:36.103872,15.27602548,.0001924,43.0003,238.6000,258.1664,101.8972,0,U,64015,999,6003,.91461E-3,.25009E-3,0
STARLINK-34016,2025-101Y,2026-06-01T06:56:14.440128,15.27567271,.00033112,43.0038,245.5791,293.8653,66.1851,0,U,64016,999,5984,.80267798E-3,.21885E-3,0
STARLINK-34161,2025-101Z,2026-06-02T12:58:09.947424,15.27600465,.0000396,42.9946,238.6316,309.6491,50.4325,0,U,64017,999,6003,.67268E-3,.18306E-3,0
STARLINK-34162,2025-101AA,2026-06-01T13:44:19.653216,15.27625652,.00012071,43.0021,244.2645,279.5457,80.5258,0,U,64018,999,5988,.87267192E-3,.23863E-3,0
STARLINK-34155,2025-101AB,2026-06-01T17:03:43.846560,15.27589106,.00025326,43.0042,243.5853,269.9009,90.1552,0,U,64019,999,5990,.62981066E-3,.17114E-3,0
STARLINK-34141,2025-101AC,2026-06-01T13:49:52.581792,15.27593805,.00017667,43.0008,244.2929,296.2195,63.8475,0,U,64020,999,5988,.64989706E-3,.17672E-3,0
STARLINK-34062,2025-101AD,2026-06-02T12:50:46.018176,15.27600481,.0001267,43.0006,238.5863,339.5023,20.5777,0,U,64021,999,6003,.82987E-3,.22659E-3,0
STARLINK-34051,2025-102A,2026-06-03T11:39:57.589344,14.98334455,.0003009,70.0019,258.1328,267.1138,92.9676,0,U,64022,999,5880,.23972E-3,.2769E-4,0
STARLINK-34087,2025-102B,2026-06-03T10:27:37.745856,14.98338193,.0003068,70.0018,258.3575,265.5288,94.5521,0,U,64023,999,5880,.29286E-3,.3404E-4,0
STARLINK-34184,2025-102C,2026-06-03T11:15:40.463712,14.98338993,.0003237,70.0026,258.0747,252.2977,107.7829,0,U,64024,999,5869,.28525E-3,.3313E-4,0
STARLINK-34088,2025-102D,2026-06-03T10:39:54.242784,14.98335691,.0003442,70.0014,258.3811,273.8261,86.2504,0,U,64025,999,5880,.68938E-3,.8144E-4,0
STARLINK-33992,2025-102E,2026-06-03T10:51:40.273344,14.98339410,.0002963,70.0018,258.4156,265.6190,94.4631,0,U,64026,999,5888,.26372E-3,.3056E-4,0
STARLINK-33967,2025-102F,2026-06-03T11:39:42.801984,14.98327120,.000318,70.0019,258.1265,278.2663,81.8136,0,U,64027,999,5874,.27618E-3,.3204E-4,0
STARLINK-33953,2025-102G,2026-06-03T10:57:38.624256,14.98336373,.0003209,70.0015,258.0235,263.8071,96.2722,0,U,64028,999,5890,.22618E-3,.2607E-4,0
STARLINK-33790,2025-102H,2026-06-03T07:09:34.988832,14.98339609,.0003704,70.0015,258.6716,260.9829,99.0910,0,U,64029,999,5882,.34763E-3,.4058E-4,0
STARLINK-34030,2025-102J,2026-06-03T10:39:39.559104,14.98340723,.0003472,70.0013,258.3853,272.0709,88.0053,0,U,64030,999,5880,.69526E-3,.8215E-4,0
STARLINK-34024,2025-102K,2026-06-03T07:03:20.570112,14.98339817,.0002633,70.0030,258.6606,282.1540,77.9324,0,U,64031,999,5871,.45525E-3,.5345E-4,0
STARLINK-34019,2025-102L,2026-06-03T11:09:39.622752,14.98340842,.0003136,70.0021,258.0556,239.1023,120.9827,0,U,64032,999,5881,.1746E-3,.1991E-4,0
STARLINK-33860,2025-102M,2026-06-03T11:27:41.940864,14.98333110,.0003391,70.0014,258.0967,257.9850,102.0929,0,U,64033,999,5881,.21595E-3,.2485E-4,0
STARLINK-33946,2025-102N,2026-06-03T11:33:57.430944,14.98337620,.000412,70.0021,258.1165,298.2865,61.7878,0,U,64034,999,5885,.2487E-3,.2876E-4,0
STARLINK-34046,2025-102P,2026-06-03T10:45:53.345376,14.98336215,.0003152,70.0017,258.2808,265.8776,94.2023,0,U,64035,999,5857,.17629E-3,.2011E-4,0
STARLINK-34085,2025-102Q,2026-06-03T10:27:51.979392,14.98337297,.0003251,70.0013,258.3504,265.2391,94.8397,0,U,64036,999,5879,.26756E-3,.3101E-4,0
STARLINK-34008,2025-102R,2026-06-03T08:00:06.000192,14.98337764,.0003233,70.0011,258.5318,262.9052,331.3398,0,U,64037,999,578,-.58739E-3,-.7096E-4,0
STARLINK-34079,2025-102S,2026-06-03T11:03:38.919168,14.98340954,.0003406,70.0017,258.0374,242.0646,118.0168,0,U,64038,999,5890,.20674E-3,.2375E-4,0
STARLINK-34089,2025-102T,2026-06-03T10:51:54.226080,14.98344890,.0003425,70.0022,258.4140,247.4560,112.6237,0,U,64039,999,5879,.26922E-3,.3122E-4,0
STARLINK-34117,2025-102U,2026-06-03T10:33:52.753824,14.98335746,.0003086,70.0016,258.3657,268.1334,91.9471,0,U,64040,999,5873,.20473E-3,.2351E-4,0
STARLINK-34111,2025-102V,2026-06-03T07:03:34.871040,14.98341369,.0002763,70.0034,258.6542,293.0422,67.0445,0,U,64041,999,5855,.48195E-3,.5664E-4,0
STARLINK-34049,2025-102W,2026-06-03T10:45:39.683808,14.98337530,.00032,70.0014,258.3987,265.3976,94.6817,0,U,64042,999,5879,.24229E-3,.28E-4,0
STARLINK-34096,2025-102X,2026-06-02T16:44:08.582784,14.98337838,.00030202,70.0023,260.1913,263.1128,96.9688,0,U,64043,999,5857,.40019561E-3,.4686E-4,0
STARLINK-34081,2025-102Y,2026-06-03T10:33:38.528064,14.98335254,.0002755,70.0020,258.3703,258.3800,101.7050,0,U,64044,999,5873,.2341E-3,.2702E-4,0
STARLINK-34033,2025-102Z,2026-06-03T11:33:42.857856,14.98332862,.0003516,70.0014,258.1111,288.2011,71.8765,0,U,64045,999,5873,.2977E-3,.3461E-4,0
STARLINK-33952,2025-102AA,2026-06-03T11:21:41.303808,14.98333455,.000301,70.0016,258.0813,255.1369,104.9457,0,U,64046,999,5880,.1772E-3,.2022E-4,0
STARLINK-33961,2025-102AB,2026-06-02T16:32:07.237824,14.98333297,.00030667,70.0017,260.1616,267.6997,92.3811,0,U,64047,999,5856,.16301593E-3,.1853E-4,0
TIANYI A,2025-103A,2026-06-02T10:05:27.871008,15.19175102,.00016405,97.4116,226.2536,87.7949,272.3474,0,U,64048,999,5783,.87196906E-4,.1766E-4,0
TIANYI B,2025-103B,2026-06-03T13:04:42.231936,15.19840548,.0001316,97.3797,226.7153,177.2271,182.8971,0,U,64049,999,5799,.19003E-3,.4007E-4,0
TIANYI C,2025-103C,2026-06-03T13:03:29.560896,15.19842932,.0002637,97.3750,226.4922,179.4176,180.7062,0,U,64050,999,5799,.21531E-3,.4549E-4,0
TIANYI D,2025-103D,2026-06-03T13:06:32.555232,15.18307006,.0001182,97.3826,226.0974,204.2228,155.8951,0,U,64051,999,5793,.2508E-3,.5078E-4,0
TIANYI E,2025-103E,2026-06-03T11:41:26.193408,15.23606657,.0002543,97.3746,227.1705,184.8464,175.2749,0,U,64052,999,5802,.52404E-3,.12487E-3,0
TIANYI F,2025-103F,2026-06-03T12:35:13.128864,15.18913923,.0002723,97.3806,226.3223,183.4371,176.6846,0,U,64053,999,5797,.20703E-3,.4255E-4,0
